FENGYUN 1C DEB          
1 29890U 99025GL  17345.64734464  .00000836  00000-0  47640-3 0  9992
2 29890  99.4667 238.5555 0019706 320.3215  39.6513 14.12700628560888
